ORBCOMM FM05            
1 25117U 97084F   24350.84927316  .00003221  00000+0  96111-3 0  9996
2 25117  45.0125 167.5736 0000912  47.3970 312.6957 14.44691395414088
ORBCOMM FM06            
1 25118U 97084G   24350.89178150  .00002837  00000+0  84825-3 0  9997
2 25118  45.0118 167.3374 0000654 123.5460  38.4657 14.44874871415006
ORBCOMM FM07            
1 25119U 97084H   24350.86797429  .00002964  00000+0  88689-3 0  9994
2 25119  45.0115 168.1583 0001459  18.7135 341.3769 14.44744713414991
ORBCOMM FM03            
1 25158U 98007B   24350.81634196  .00002745  00000+0  10235-2 0  9997
2 25158 107.9671 119.1029 0047896 211.9172 147.9063 14.33593742397756
ORBCOMM FM04            
1 25159U 98007C   24350.83358692  .00003043  00000+0  11257-2 0  9991
2 25159 107.9658 122.2312 0043453 209.7997 150.0667 14.33867501397939
ORBCOMM FM17            
1 25413U 98046A   24350.85566120  .00002012  00000+0  75858-3 0  9999
2 25413  44.9958  42.4034 0002565 317.7316  42.3333 14.34361114376843
ORBCOMM FM18            
1 25414U 98046B   24350.33053631  .00003090  00000+0  10684-2 0  9993
2 25414  44.9938 327.0107 0003626  46.3794 313.7354 14.37537499377954
ORBCOMM FM19            
1 25415U 98046C   24350.42414903  .00002281  00000+0  80402-3 0  9994
2 25415  44.9949 328.2810 0002904  26.6175 140.2869 14.37356010377955
